start=new Date('2021-11-13T00:00:00.000Z').valueOf();
sats=[{"SITE":"AFETR","GP_ID":"189645578","PERIOD":"95.592","LAUNCH_DATE":"2021-01-20","BSTAR":"0.00000368260000","OBJECT_NAME":"STARLINK-2046","ECCENTRICITY":"0.00015240","EPOCH":"2021-11-12T21:43:51.482208","EPHEMERIS_TYPE":"0","PERIAPSIS":"546.160","MEAN_MOTION_DDOT":"0.0000000000000","RCS_SIZE":"LARGE","INCLINATION":"53.0558","SEMIMAJOR_AXIS":"6925.351","OBJECT_TYPE":"PAYLOAD","ELEMENT_SET_NO":"999","TLE_LINE1":"1 47354U 21005F   21316.90545697 -.00000227  00000-0  36826-5 0  9991","OBJECT_ID":"2021-005F","ARG_OF_PERICENTER":"67.3172","FILE":"3213639","NORAD_CAT_ID":"47354","MEAN_ANOMALY":"292.7978","CLASSIFICATION_TYPE":"U","DECAY_DATE":null,"TLE_LINE2":"2 47354  53.0558 269.5750 0001524  67.3172 292.7978 15.06399287 45725","MEAN_MOTION":"15.06399287","CENTER_NAME":"EARTH","TIME_SYSTEM":"UTC","REV_AT_EPOCH":"4572","COUNTRY_CODE":"US","MEAN_MOTION_DOT":"-0.00000227","MEAN_ELEMENT_THEORY":"SGP4","REF_FRAME":"TEME","RA_OF_ASC_NODE":"269.5750","APOAPSIS":"548.271"},{"GP_ID":"189594442","LAUNCH_DATE":"2021-01-20","PERIOD":"95.665","SITE":"AFETR","BSTAR":"-0.00693220000000","OBJECT_NAME":"STARLINK-2047","EPHEMERIS_TYPE":"0","EPOCH":"2021-11-12T12:22:01.307424","ECCENTRICITY":"0.00016910","RCS_SIZE":"LARGE","MEAN_MOTION_DDOT":"0.0000000000000","PERIAPSIS":"549.570","SEMIMAJOR_AXIS":"6928.877","INCLINATION":"53.0538","OBJECT_TYPE":"PAYLOAD","ELEMENT_SET_NO":"999","ARG_OF_PERICENTER":"54.8401","OBJECT_ID":"2021-005G","TLE_LINE1":"1 47355U 21005G   21316.51529291 -.00098998  00000-0 -69322-2 0  9998","MEAN_ANOMALY":"305.2746","NORAD_CAT_ID":"47355","FILE":"3213417","DECAY_DATE":null,"CLASSIFICATION_TYPE":"U","TIME_SYSTEM":"UTC","CENTER_NAME":"EARTH","MEAN_MOTION":"15.05249599","TLE_LINE2":"2 47355  53.0538 256.3286 0001691  54.8401 305.2746 15.05249599 45871","MEAN_MOTION_DOT":"-0.00098998","COUNTRY_CODE":"US","REV_AT_EPOCH":"4587","MEAN_ELEMENT_THEORY":"SGP4","APOAPSIS":"551.913","REF_FRAME":"TEME","RA_OF_ASC_NODE":"256.3286"},{"TIME_SYSTEM":"UTC","CENTER_NAME":"EARTH","MEAN_MOTION":"15.06387210","TLE_LINE2":"2 47356  53.0554 274.5671 0001661  61.7793 298.3364 15.06387210 45656","MEAN_MOTION_DOT":"-0.00000308","COUNTRY_CODE":"US","REV_AT_EPOCH":"4565","MEAN_ELEMENT_THEORY":"SGP4","APOAPSIS":"548.403","REF_FRAME":"TEME","RA_OF_ASC_NODE":"274.5671","ARG_OF_PERICENTER":"61.7793","OBJECT_ID":"2021-005H","TLE_LINE1":"1 47356U 21005H   21316.90684385 -.00000308  00000-0 -17676-5 0  9994","NORAD_CAT_ID":"47356","MEAN_ANOMALY":"298.3364","FILE":"3213639","DECAY_DATE":null,"CLASSIFICATION_TYPE":"U","EPHEMERIS_TYPE":"0","EPOCH":"2021-11-12T21:45:51.308640","ECCENTRICITY":"0.00016610","RCS_SIZE":"LARGE","MEAN_MOTION_DDOT":"0.0000000000000","PERIAPSIS":"546.102","SEMIMAJOR_AXIS":"6925.388","INCLINATION":"53.0554","ELEMENT_SET_NO":"999","OBJECT_TYPE":"PAYLOAD","GP_ID":"189646566","LAUNCH_DATE":"2021-01-20","PERIOD":"95.593","SITE":"AFETR","BSTAR":"-0.00000176760000","OBJECT_NAME":"STARLINK-2049"},{"MEAN_ELEMENT_THEORY":"SGP4","APOAPSIS":"548.187","REF_FRAME":"TEME","RA_OF_ASC_NODE":"306.6208","TIME_SYSTEM":"UTC","CENTER_NAME":"EARTH","TLE_LINE2":"2 47357  53.0527 306.6208 0001434  74.6819 285.4328 15.06406556 45168","MEAN_MOTION":"15.06406556","MEAN_MOTION_DOT":"0.00000486","COUNTRY_CODE":"US","REV_AT_EPOCH":"4516","DECAY_DATE":null,"CLASSIFICATION_TYPE":"U","ARG_OF_PERICENTER":"74.6819","OBJECT_ID":"2021-005J","TLE_LINE1":"1 47357U 21005J   21316.45071159  .00000486  00000-0  51503-4 0  9995","NORAD_CAT_ID":"47357","MEAN_ANOMALY":"285.4328","FILE":"3213417","INCLINATION":"53.0527","SEMIMAJOR_AXIS":"6925.328","OBJECT_TYPE":"PAYLOAD","ELEMENT_SET_NO":"999","EPHEMERIS_TYPE":"0","EPOCH":"2021-11-12T10:49:01.481376","ECCENTRICITY":"0.00014340","RCS_SIZE":"LARGE","MEAN_MOTION_DDOT":"0.0000000000000","PERIAPSIS":"546.200","OBJECT_NAME":"STARLINK-2050","GP_ID":"189593971","PERIOD":"95.592","LAUNCH_DATE":"2021-01-20","SITE":"AFETR","BSTAR":"0.00005150300000"},{"OBJECT_NAME":"STARLINK-2055","GP_ID":"189594717","PERIOD":"95.593","LAUNCH_DATE":"2021-01-20","SITE":"AFETR","BSTAR":"-0.00010776000000","SEMIMAJOR_AXIS":"6925.376","INCLINATION":"53.0553","OBJECT_TYPE":"PAYLOAD","ELEMENT_SET_NO":"999","EPOCH":"2021-11-12T14:04:05.028384","EPHEMERIS_TYPE":"0","ECCENTRICITY":"0.00016280","MEAN_MOTION_DDOT":"0.0000000000000","RCS_SIZE":"LARGE","PERIAPSIS":"546.113","DECAY_DATE":null,"CLASSIFICATION_TYPE":"U","TLE_LINE1":"1 47358U 21005K   21316.58616931 -.00001886  00000-0 -10776-3 0  9996","OBJECT_ID":"2021-005K","ARG_OF_PERICENTER":"58.7256","MEAN_ANOMALY":"301.3892","NORAD_CAT_ID":"47358","FILE":"3213417","MEAN_ELEMENT_THEORY":"SGP4","APOAPSIS":"548.368","RA_OF_ASC_NODE":"275.9984","REF_FRAME":"TEME","TIME_SYSTEM":"UTC","MEAN_MOTION":"15.06391125","TLE_LINE2":"2 47358  53.0553 275.9984 0001628  58.7256 301.3892 15.06391125 45608","CENTER_NAME":"EARTH","COUNTRY_CODE":"US","MEAN_MOTION_DOT":"-0.00001886","REV_AT_EPOCH":"4560"},{"MEAN_ANOMALY":"292.8150","NORAD_CAT_ID":"47359","FILE":"3213639","TLE_LINE1":"1 47359U 21005L   21316.66312041 -.00001844  00000-0 -10500-3 0  9990","ARG_OF_PERICENTER":"67.2984","OBJECT_ID":"2021-005L","DECAY_DATE":null,"CLASSIFICATION_TYPE":"U","COUNTRY_CODE":"US","MEAN_MOTION_DOT":"-0.00001844","REV_AT_EPOCH":"4526","TIME_SYSTEM":"UTC","TLE_LINE2":"2 47359  53.0543 300.6601 0001376  67.2984 292.8150 15.06378261 45262","MEAN_MOTION":"15.06378261","CENTER_NAME":"EARTH","APOAPSIS":"548.233","RA_OF_ASC_NODE":"300.6601","REF_FRAME":"TEME","MEAN_ELEMENT_THEORY":"SGP4","BSTAR":"-0.00010500000000","GP_ID":"189645326","LAUNCH_DATE":"2021-01-20","PERIOD":"95.594","SITE":"AFETR","OBJECT_NAME":"STARLINK-2069","MEAN_MOTION_DDOT":"0.0000000000000","RCS_SIZE":"LARGE","PERIAPSIS":"546.327","EPOCH":"2021-11-12T15:54:53.603424","EPHEMERIS_TYPE":"0","ECCENTRICITY":"0.00013760","ELEMENT_SET_NO":"999","OBJECT_TYPE":"PAYLOAD","INCLINATION":"53.0543","SEMIMAJOR_AXIS":"6925.415"},{"CLASSIFICATION_TYPE":"U","DECAY_DATE":null,"OBJECT_ID":"2021-005M","ARG_OF_PERICENTER":"63.8793","TLE_LINE1":"1 47360U 21005M   21316.86859379  .00002843  00000-0  20964-3 0  9997","FILE":"3213639","NORAD_CAT_ID":"47360","MEAN_ANOMALY":"296.2365","MEAN_ELEMENT_THEORY":"SGP4","REF_FRAME":"TEME","RA_OF_ASC_NODE":"269.7383","APOAPSIS":"548.340","CENTER_NAME":"EARTH","TLE_LINE2":"2 47360  53.0541 269.7383 0001643  63.8793 296.2365 15.06403874 45727","MEAN_MOTION":"15.06403874","TIME_SYSTEM":"UTC","REV_AT_EPOCH":"4572","MEAN_MOTION_DOT":"0.00002843","COUNTRY_CODE":"US","OBJECT_NAME":"STARLINK-2070","SITE":"AFETR","GP_ID":"189646066","LAUNCH_DATE":"2021-01-20","PERIOD":"95.592","BSTAR":"0.00020964000000","INCLINATION":"53.0541","SEMIMAJOR_AXIS":"6925.337","ELEMENT_SET_NO":"999","OBJECT_TYPE":"PAYLOAD","ECCENTRICITY":"0.00016430","EPHEMERIS_TYPE":"0","EPOCH":"2021-11-12T20:50:46.503456","PERIAPSIS":"546.064","RCS_SIZE":"LARGE","MEAN_MOTION_DDOT":"0.0000000000000"},{"PERIAPSIS":"546.304","RCS_SIZE":"LARGE","MEAN_MOTION_DDOT":"0.0000000000000","ECCENTRICITY":"0.00013060","EPHEMERIS_TYPE":"0","EPOCH":"2021-11-12T14:14:40.236864","OBJECT_TYPE":"PAYLOAD","ELEMENT_SET_NO":"999","SEMIMAJOR_AXIS":"6925.343","INCLINATION":"53.0525","BSTAR":"-0.00012090000000","SITE":"AFETR","GP_ID":"189593472","LAUNCH_DATE":"2021-01-20","PERIOD":"95.592","OBJECT_NAME":"STARLINK-2071","REV_AT_EPOCH":"4560","MEAN_MOTION_DOT":"-0.00002082","COUNTRY_CODE":"US","CENTER_NAME":"EARTH","MEAN_MOTION":"15.06401744","TLE_LINE2":"2 47361  53.0525 275.9527 0001306  71.6247 288.4884 15.06401744 45606","TIME_SYSTEM":"UTC","REF_FRAME":"TEME","RA_OF_ASC_NODE":"275.9527","APOAPSIS":"548.113","MEAN_ELEMENT_THEORY":"SGP4","FILE":"3213417","MEAN_ANOMALY":"288.4884","NORAD_CAT_ID":"47361","OBJECT_ID":"2021-005N","ARG_OF_PERICENTER":"71.6247","TLE_LINE1":"1 47361U 21005N   21316.59352126 -.00002082  00000-0 -12090-3 0  9994","CLASSIFICATION_TYPE":"U","DECAY_DATE":null},{"DECAY_DATE":null,"CLASSIFICATION_TYPE":"U","MEAN_ANOMALY":"286.1444","NORAD_CAT_ID":"47362","FILE":"3213639","OBJECT_ID":"2021-005P","ARG_OF_PERICENTER":"73.9724","TLE_LINE1":"1 47362U 21005P   21316.70504215 -.00000298  00000-0 -11037-5 0  9995","APOAPSIS":"548.357","REF_FRAME":"TEME","RA_OF_ASC_NODE":"305.4738","MEAN_ELEMENT_THEORY":"SGP4","MEAN_MOTION_DOT":"-0.00000298","COUNTRY_CODE":"US","REV_AT_EPOCH":"4520","TIME_SYSTEM":"UTC","CENTER_NAME":"EARTH","TLE_LINE2":"2 47362  53.0545 305.4738 0001627  73.9724 286.1444 15.06394403 45209","MEAN_MOTION":"15.06394403","OBJECT_NAME":"STARLINK-2076","BSTAR":"-0.00000110370000","LAUNCH_DATE":"2021-01-20","GP_ID":"189645579","PERIOD":"95.592","SITE":"AFETR","ELEMENT_SET_NO":"999","OBJECT_TYPE":"PAYLOAD","SEMIMAJOR_AXIS":"6925.366","INCLINATION":"53.0545","RCS_SIZE":"LARGE","MEAN_MOTION_DDOT":"0.0000000000000","PERIAPSIS":"546.104","EPHEMERIS_TYPE":"0","EPOCH":"2021-11-12T16:55:15.641760","ECCENTRICITY":"0.00016270"},{"NORAD_CAT_ID":"47363","MEAN_ANOMALY":"294.9563","FILE":"3213639","OBJECT_ID":"2021-005Q","ARG_OF_PERICENTER":"65.1608","TLE_LINE1":"1 47363U 21005Q   21316.70873183  .00000450  00000-0  49070-4 0  9994","DECAY_DATE":null,"CLASSIFICATION_TYPE":"U","MEAN_MOTION_DOT":"0.00000450","COUNTRY_CODE":"US","REV_AT_EPOCH":"4520","TIME_SYSTEM":"UTC","CENTER_NAME":"EARTH","MEAN_MOTION":"15.06409247","TLE_LINE2":"2 47363  53.0541 305.4510 0001752  65.1608 294.9563 15.06409247 45209","APOAPSIS":"548.399","RA_OF_ASC_NODE":"305.4510","REF_FRAME":"TEME","MEAN_ELEMENT_THEORY":"SGP4","BSTAR":"0.00004907000000","GP_ID":"189645827","LAUNCH_DATE":"2021-01-20","PERIOD":"95.592","SITE":"AFETR","OBJECT_NAME":"STARLINK-2077","RCS_SIZE":"LARGE","MEAN_MOTION_DDOT":"0.0000000000000","PERIAPSIS":"545.972","EPHEMERIS_TYPE":"0","EPOCH":"2021-11-12T17:00:34.430112","ECCENTRICITY":"0.00017520","OBJECT_TYPE":"PAYLOAD","ELEMENT_SET_NO":"999","SEMIMAJOR_AXIS":"6925.320","INCLINATION":"53.0541"}];
